241P/LINEAR,e,21.0987,305.4618,111.4881,4.922574,0.0902435,0.61041397,60.5521,05/28.0/2023,2000,g 13.5,4.0
# From MPEC 2021-S45
242P/Spahr,e,32.5022,180.3787,245.1431,5.512413,0.0761538,0.27987740,316.0058,05/28.0/2023,2000,g  8.0,4.0
# From MPEC 2022-K19
243P/NEAT,e,7.6422,87.5895,283.6701,3.829511,0.1315192,0.36063238,227.9613,05/28.0/2023,2000,g 12.5,4.0
# From MPEC 2023-J29
244P/Scotti,e,2.2593,353.9977,93.1602,4.897468,0.0909383,0.19947780,17.3988,05/28.0/2023,2000,g  9.0,4.0
# From MPEC 2022-CN4
245P/WISE,e,21.1849,316.6707,316.8333,4.048223,0.1210062,0.45595301,234.3515,05/28.0/2023,2000,g 14.0,4.0
# From MPEC 2023-A50
246P/NEAT,e,16.1015,77.4351,178.5070,4.044346,0.1211802,0.29060963,99.2095,05/28.0/2023,2000,g 10.5,4.0
# From MPEC 2021-F20
247P/LINEAR,e,13.6594,54.0317,47.4028,3.966926,0.1247449,0.62488220,204.3842,05/28.0/2023,2000,g 16.5,2.0
# From MPC 75730
248P/Gibbs,e,6.3512,207.8123,209.8846,5.988783,0.0672506,0.63922401,303.4488,05/28.0/2023,2000,g 14.0,4.0
# From MPEC 2022-YN2
249P/LINEAR,e,8.3860,239.0664,65.7464,2.763878,0.2144993,0.81957759,227.9489,05/28.0/2023,2000,g 15.5,4.0
# From MPC110497
250P/Larson,e,13.1507,73.3408,46.0576,3.770078,0.1346414,0.39880521,262.9644,05/28.0/2023,2000,g 14.5,4.0
# From MPC104795
251P/LINEAR,e,23.3864,219.3433,31.2399,3.513599,0.1496497,0.50448312,320.9030,05/28.0/2023,2000,g 16.5,2.0
# From MPEC 2021-S45
252P/LINEAR,e,10.4144,190.9109,343.4018,3.051185,0.1849274,0.67101219,126.8894,05/28.0/2023,2000,g 17.5,4.0
# From MPEC 2020-FB5
253P/PANSTARRS,e,4.9435,146.8736,230.7425,3.463808,0.1528880,0.41460389,281.7437,05/28.0/2023,2000,g 14.5,4.0
# From MPEC 2023-FK0
254P/McNaught,e,32.5617,129.1871,219.6877,4.616566,0.0993632,0.31952289,96.3486,05/28.0/2023,2000,g 11.0,4.0
# From MPEC 2021-UA9
255P/Levy,e,13.4121,275.6569,186.0142,2.942233,0.1952938,0.71158054,51.3024,05/28.0/2023,2000,g 14.1,4.0
# From MPEC 2023-KD6
256P/LINEAR,e,27.6199,81.3284,124.1893,4.639623,0.0986234,0.41799309,7.5723,05/28.0/2023,2000,g 14.0,2.0
# From MPEC 2023-A50
257P/Catalina,e,20.2197,207.7143,117.7751,3.764823,0.1349234,0.42981213,133.5116,05/28.0/2023,2000,g 11.5,4.0
# From MPEC 2021-U31
258P/PANSTARRS,e,6.7477,126.2342,25.7097,4.393235,0.1070354,0.20855146,115.0377,05/28.0/2023,2000,g 13.0,4.0
# From MPC106349
259P/Garradd,e,15.8975,51.4326,257.5170,2.729000,0.2186245,0.33887825,103.5999,05/28.0/2023,2000,g 15.5,4.0
# From MPEC 2022-O01
260P/McNaught,e,15.0537,349.3328,18.4586,3.623377,0.1429005,0.60930578,193.6308,05/28.0/2023,2000,g 13.5,4.0
# From MPEC 2021-J28
261P/Larson,e,6.0718,291.0969,67.2918,3.490534,0.1511354,0.42326045,217.3436,05/28.0/2023,2000,g 14.0,4.0
# From MPC 82322
262P/McNaught-Russell,e,29.2963,217.8625,171.0672,6.871084,0.0547225,0.81634492,209.2396,05/28.0/2023,2000,g 13.5,4.0
# From MPEC 2023-KD6
263P/Gibbs,e,11.5217,105.5066,35.0487,3.041889,0.1857757,0.59357407,21.8126,05/28.0/2023,2000,g 18.0,4.0
# From MPC114608
264P/Larsen,e,25.8110,219.8548,346.5523,3.882357,0.1288430,0.37662890,180.2956,05/28.0/2023,2000,g 13.0,4.0
# From MPC 79870
265P/LINEAR,e,14.3597,342.9264,33.5031,4.257288,0.1122030,0.64756628,94.0014,05/28.0/2023,2000,g 14.5,4.0
# From MPEC 2021-F20
266P/Christensen,e,3.4269,4.9859,97.6716,3.530872,0.1485529,0.34012620,168.3791,05/28.0/2023,2000,g 14.7,4.0
# From MPC114608
267P/LONEOS,e,6.1442,228.5650,114.2493,3.210275,0.1713526,0.61433432,302.9773,05/28.0/2023,2000,g 19.5,4.0
# From MPC 92277
268P/Bernardi,e,15.6676,126.0971,359.8382,4.593686,0.1001065,0.47658961,302.8785,05/28.0/2023,2000,g 14.0,4.0
# From MPEC 2023-J29
269P/Jedicke,e,7.0823,241.7559,225.6761,7.066659,0.0524666,0.43196157,165.8414,05/28.0/2023,2000,g 10.0,4.0
# From MPC 88332
270P/Gehrels,e,2.9248,223.0433,209.7715,6.656924,0.0573844,0.46934775,208.6456,05/28.0/2023,2000,g  8.0,4.0
# From MPC 92277
271P/van Houten-Lemmon,e,6.8714,9.3122,36.4497,7.035029,0.0528208,0.39590393,190.0815,05/28.0/2023,2000,g 11.0,4.0
# From MPEC 2023-D41
272P/NEAT,e,18.0730,109.4593,27.8933,4.461906,0.1045739,0.45494360,32.9378,05/28.0/2023,2000,g 16.0,2.0
# From MPC 82723
273P/Pons-Gambart,e,136.6324,320.3899,20.2789,31.98704,0.0054481,0.97442562,0.0000,12/22.2538/2012,2000,g 11.5,4.0
# From MPEC 2023-KD6
274P/Tombaugh-Tenagra,e,15.8162,81.3257,38.4744,4.377607,0.1076091,0.43968072,44.6056,05/28.0/2023,2000,g 13.0,4.0
# From MPC 81862
275P/Hermann,e,21.2658,348.7498,173.9308,5.782146,0.0708876,0.71307366,271.3587,05/28.0/2023,2000,g 17.0,4.0
# From MPEC 2023-J29
276P/Vorobjov,e,14.8120,211.3415,199.4495,5.327759,0.0801470,0.26829986,314.7669,05/28.0/2023,2000,g 11.5,4.0
# From MPEC 2021-F20
277P/LINEAR,e,16.7809,276.2941,152.3490,3.853532,0.1302914,0.50624500,114.4587,05/28.0/2023,2000,g 15.1,4.0
# From MPEC 2021-S45
278P/McNaught,e,6.6942,15.3687,237.5271,3.679560,0.1396401,0.43752115,138.0053,05/28.0/2023,2000,g 14.0,4.0
# From MPEC 2022-K19
279P/LaSagra,e,5.0516,346.2321,5.8486,3.575079,0.1458061,0.39914378,5.6058,05/28.0/2023,2000,g 14.0,4.0
# From MPEC 2023-J95
280P/Larsen,e,11.7720,131.3830,104.7408,4.530005,0.1022247,0.41718422,352.9737,05/28.0/2023,2000,g 12.5,4.0
# From MPEC 2023-D41
281P/MOSS,e,4.7180,87.1771,26.6584,4.878931,0.0914570,0.17308059,10.5591,05/28.0/2023,2000,g 11.0,4.0
# From MPC133426
282P/,e,5.8118,9.2944,217.6086,4.237844,0.1129761,0.18795071,65.5968,05/28.0/2023,2000,g 13.5,2.0
# From MPEC 2022-K19
283P/Spacewatch,e,14.4562,161.1257,22.2072,4.134939,0.1172197,0.48439136,73.5189,05/28.0/2023,2000,g 16.0,2.0
# From MPEC 2023-D41
284P/McNaught,e,11.8604,144.2652,202.4434,3.676428,0.1398186,0.37525065,87.0325,05/28.0/2023,2000,g 13.0,4.0
# From MPEC 2023-B57
285P/LINEAR,e,25.0377,185.5058,178.4008,4.508836,0.1029455,0.61870245,13.9765,05/28.0/2023,2000,g 15.0,4.0
# From MPEC 2022-X67
286P/Christensen,e,17.0457,283.8147,24.9050,4.113084,0.1181552,0.42642867,44.9562,05/28.0/2023,2000,g 14.0,4.0
# From MPEC 2023-KD6
287P/Christensen,e,16.3216,139.0428,189.1299,4.163763,0.1160045,0.27128675,355.4643,05/28.0/2023,2000,g 13.5,4.0
# From MPC133426
288P/,e,3.2383,83.1232,280.2103,3.048192,0.1851999,0.20044448,83.7794,05/28.0/2023,2000,g 16.0,2.0
# From MPEC 2023-HD1
289P/Blanpain,e,5.8996,68.8887,9.8419,3.045219,0.1854711,0.68615553,232.5018,05/28.0/2023,2000,g 19.7,4.0
# From MPC 95214
290P/Jager,e,20.0281,302.6636,181.8408,6.217480,0.0635744,0.62728503,217.0018,05/28.0/2023,2000,g 10.5,4.0
# From MPEC 2023-J29
291P/NEAT,e,6.3090,237.6580,173.5216,4.537749,0.1019632,0.43468516,2.4372,05/28.0/2023,2000,g 13.0,4.0
# From MPEC 2022-K19
292P/Li,e,24.2994,90.9166,319.5546,6.101017,0.0654035,0.58975027,222.2849,05/28.0/2023,2000,g 12.5,4.0
# From MPEC 2022-L66
293P/Spacewatch,e,9.0609,78.3993,40.9341,3.640393,0.1418998,0.41859435,126.2603,05/28.0/2023,2000,g 14.5,4.0
# From MPEC 2020-SI8
294P/LINEAR,e,17.7706,310.6587,236.7540,3.186977,0.1732350,0.60340696,220.4816,05/28.0/2023,2000,g 15.5,4.0
# From MPEC 2022-K19
295P/LINEAR,e,21.0746,7.4288,72.9049,5.304309,0.0806791,0.61722444,267.0578,05/28.0/2023,2000,g 12.0,4.0
# From MPEC 2021-N06
296P/Garradd,e,25.2569,263.5423,349.9641,3.491060,0.1511012,0.47906891,148.4814,05/28.0/2023,2000,g 14.0,4.0
# From MPC102956
297P/Beshore,e,10.3320,95.6203,136.0305,3.471829,0.1523585,0.32104424,129.2445,05/28.0/2023,2000,g 15.0,4.0
# From MPC114609
298P/Christensen,e,7.8706,52.8167,100.6144,3.589918,0.1449030,0.38624408,144.0680,05/28.0/2023,2000,g 15.0,4.0
# From MPEC 2023-KD6
299P/Catalina-PANSTARRS,e,10.4672,271.5960,323.7365,4.388901,0.1071940,0.28092989,323.6988,05/28.0/2023,2000,g 11.5,4.0
# From MPEC 2023-J95
300P/Catalina,e,5.6741,95.6207,222.9574,2.698869,0.2222959,0.69169800,10.4223,05/28.0/2023,2000,g 16.0,4.0
# From MPC 89014
301P/LINEAR-NEAT,e,10.3359,351.1638,193.5239,5.741809,0.0716359,0.58558692,229.6277,05/28.0/2023,2000,g 13.0,4.0
# From MPEC 2023-KD6
302P/Lemmon-PANSTARRS,e,6.0337,121.7263,208.5144,4.272444,0.1116065,0.23017136,287.3732,05/28.0/2023,2000,g 12.5,4.0
# From MPC 92278
303P/NEAT,e,7.0191,347.9600,357.0008,5.043230,0.0870244,0.51082545,273.1115,05/28.0/2023,2000,g 13.5,4.0
# From MPEC 2022-K19
304P/Ory,e,2.6075,58.9074,335.2725,3.150685,0.1762368,0.60096997,179.3953,05/28.0/2023,2000,g 16.5,4.0
# From MPC101100
305P/Skiff,e,11.6692,240.1034,147.3823,4.639086,0.0986405,0.69400654,306.8233,05/28.0/2023,2000,g 18.0,4.0
# From MPC 92278
306P/LINEAR,e,8.3074,341.3716,0.8919,3.124277,0.1784760,0.59303558,217.8738,05/28.0/2023,2000,g 19.0,4.0
# From MPC 92278
307P/LINEAR,e,4.4349,158.1568,222.1828,5.789132,0.0707594,0.67555673,217.5427,05/28.0/2023,2000,g 15.0,4.0
# From MPEC 2022-C56
308P/Lagerkvist-Carsenty,e,4.8549,63.0375,333.6943,6.599652,0.0581330,0.36466337,170.7860,05/28.0/2023,2000,g 13.0,2.0
# From MPC 94284
309P/LINEAR,e,17.0240,10.1434,49.9432,4.373617,0.1077564,0.61826490,327.0191,05/28.0/2023,2000,g 15.0,4.0
# From MPEC 2022-QD9
310P/Hill,e,13.1269,8.9224,31.6739,4.186025,0.1150804,0.42274458,342.8654,05/28.0/2023,2000,g 13.5,4.0
# From MPEC 2021-BE3
311P/PANSTARRS,e,4.9696,279.2063,144.4356,2.188502,0.3044272,0.11592405,293.1952,05/28.0/2023,2000,g 17.0,4.0
# From MPEC 2021-BE3
312P/NEAT,e,19.7608,144.6698,207.6711,3.470047,0.1524758,0.42757487,148.6373,05/28.0/2023,2000,g 16.0,4.0
# From MPEC 2021-S45
313P/Gibbs,e,10.9786,105.9473,254.8824,3.164211,0.1751080,0.23488736,199.0592,05/28.0/2023,2000,g 15.0,4.0
# From MPC105243
314P/Montani,e,3.9873,267.6079,213.8991,7.256069,0.0504257,0.41705486,122.1743,05/28.0/2023,2000,g  9.5,4.0
# From MPEC 2023-J29
315P/LONEOS,e,17.7338,68.7468,65.7560,4.939788,0.0897721,0.52114244,213.2401,05/28.0/2023,2000,g 11.0,4.0
# From MPC 92279
316P/LONEOS-Christensen,e,9.8329,246.1548,191.2550,4.393142,0.1070388,0.15636813,303.6540,05/28.0/2023,2000,g 13.5,4.0
# From MPEC 2020-C98
317P/WISE,e,11.9563,275.4764,334.8245,2.962075,0.1933348,0.57072817,188.3515,05/28.0/2023,2000,g 17.5,4.0
# From MPC102103
318P/McNaught-Hartley,e,17.8895,35.5012,313.3530,7.506371,0.0479247,0.67487273,132.7906,05/28.0/2023,2000,g  8.5,6.0
# From MPC 97499
